STARLINK-32277          
1 60376U 24138X   25257.13353466  .00003022  00000+0  11408-3 0  9995
2 60376  53.1606  49.8578 0000796 113.6843 246.4242 15.30204480 63598
STARLINK-32269          
1 60377U 24138Y   25257.11770585 -.00000433  00000+0 -24972-5 0  9996
2 60377  53.1623  49.7586 0001245  84.4414 275.6729 15.30193284 63598
STARLINK-11228 [DTC]    
1 60398U 24141A   25256.24931638  .00001589  00000+0  17965-4 0  9998
2 60398  53.1589 240.9971 0001158  91.4482 268.6669 15.69723371 63820
STARLINK-11182 [DTC]    
1 60399U 24141B   25256.68030391 -.00001211  00000+0 -51344-5 0  9997
2 60399  53.1610 238.7038 0001683  84.3162 275.8048 15.69699096 63944
STARLINK-11234 [DTC]    
1 60400U 24141C   25256.67538991 -.00000532  00000+0  47830-6 0  9998
2 60400  53.1603 238.6700 0001682 104.1880 255.9325 15.69706025 63893
STARLINK-11232 [DTC]    
1 60401U 24141D   25256.22479941  .00000054  00000+0  52935-5 0  9998
2 60401  53.1580 240.8357 0000551  29.6536 330.4513 15.69707475 63870
STARLINK-11139 [DTC]    
1 60402U 24141E   25257.23859501 -.00000085  00000+0  41562-5 0  9994
2 60402  53.1598 235.7802 0001110  84.2584 275.8560 15.69714725 64039
STARLINK-11158 [DTC]    
1 60403U 24141F   25257.23379560 -.00000444  00000+0  11994-5 0  9992
2 60403  53.1598 236.4823 0001399  95.2212 264.8965 15.69710616 63974
STARLINK-11199 [DTC]    
1 60404U 24141G   25257.22889193 -.00000727  00000+0 -11424-5 0  9993
2 60404  53.1570 236.4479 0001269  86.0782 274.0381 15.69713551 64021
STARLINK-11081 [DTC]    
1 60405U 24141H   25255.69592889 -.00001175  00000+0 -48397-5 0  9993
2 60405  53.1623 243.9499 0001366  77.9691 282.1480 15.69703900 63736
STARLINK-11150 [DTC]    
1 60406U 24141J   25256.39137291  .00001502  00000+0  17247-4 0  9995
2 60406  53.1611 240.4636 0000336  79.7258 280.3798 15.69710323 63890
STARLINK-11136 [DTC]    
1 60407U 24141K   25257.21417405 -.00000534  00000+0  44484-6 0  9996
2 60407  53.1597 236.3514 0000868 319.3851  40.7102 15.69709413 63979
STARLINK-11196 [DTC]    
1 60408U 24141L   25256.38155633 -.00006111  00000+0 -45562-4 0  9990
2 60408  53.1567 240.3981 0000607  60.7414 299.3665 15.69743859 63892
STARLINK-11174 [DTC]    
1 60409U 24141M   25256.24441042  .00001722  00000+0  19067-4 0  9990
2 60409  53.1559 240.9589 0001125  81.2848 278.8297 15.69716506 63824
STARLINK-11191 [DTC]    
1 60410U 24141N   25255.98483997 -.00000443  00000+0  11984-5 0  9998
2 60410  53.1588 242.1807 0000963  68.6237 291.4883 15.69706092 63837
STARLINK-32244          
1 60411U 24141P   25256.52962222  .00000383  00000+0  25055-4 0  9998
2 60411  53.1627 345.6917 0001274  75.5773 284.5370 15.30193989 62455
