[{"OBJECT_NAME":"STARLINK-32277","OBJECT_ID":"2024-138X","EPOCH":"2025-09-14T03:12:17.394624","MEAN_MOTION":15.3020448,"ECCENTRICITY":7.962e-5,"INCLINATION":53.1606,"RA_OF_ASC_NODE":49.8578,"ARG_OF_PERICENTER":113.6843,"MEAN_ANOMALY":246.4242,"EPHEMERIS_TYPE":0,"CLASSIFICATION_TYPE":"U","NORAD_CAT_ID":60376,"ELEMENT_SET_NO":999,"REV_AT_EPOCH":6359,"BSTAR":0.0001140796,"MEAN_MOTION_DOT":3.022e-5,"MEAN_MOTION_DDOT":0},{"OBJECT_NAME":"STARLINK-32269","OBJECT_ID":"2024-138Y","EPOCH":"2025-09-14T02:49:29.785440","MEAN_MOTION":15.30193284,"ECCENTRICITY":0.00012451,"INCLINATION":53.1623,"RA_OF_ASC_NODE":49.7586,"ARG_OF_PERICENTER":84.4414,"MEAN_ANOMALY":275.6729,"EPHEMERIS_TYPE":0,"CLASSIFICATION_TYPE":"U","NORAD_CAT_ID":60377,"ELEMENT_SET_NO":999,"REV_AT_EPOCH":6359,"BSTAR":-2.497158e-6,"MEAN_MOTION_DOT":-4.33e-6,"MEAN_MOTION_DDOT":0},{"OBJECT_NAME":"STARLINK-11228 [DTC]","OBJECT_ID":"2024-141A","EPOCH":"2025-09-13T05:59:00.935232","MEAN_MOTION":15.69723371,"ECCENTRICITY":0.0001158,"INCLINATION":53.1589,"RA_OF_ASC_NODE":240.9971,"ARG_OF_PERICENTER":91.4482,"MEAN_ANOMALY":268.6669,"EPHEMERIS_TYPE":0,"CLASSIFICATION_TYPE":"U","NORAD_CAT_ID":60398,"ELEMENT_SET_NO":999,"REV_AT_EPOCH":6382,"BSTAR":1.7965483e-5,"MEAN_MOTION_DOT":1.589e-5,"MEAN_MOTION_DDOT":0},{"OBJECT_NAME":"STARLINK-11182 [DTC]","OBJECT_ID":"2024-141B","EPOCH":"2025-09-13T16:19:38.257824","MEAN_MOTION":15.69699096,"ECCENTRICITY":0.00016832,"INCLINATION":53.161,"RA_OF_ASC_NODE":238.7038,"ARG_OF_PERICENTER":84.3162,"MEAN_ANOMALY":275.8048,"EPHEMERIS_TYPE":0,"CLASSIFICATION_TYPE":"U","NORAD_CAT_ID":60399,"ELEMENT_SET_NO":999,"REV_AT_EPOCH":6394,"BSTAR":-5.134366e-6,"MEAN_MOTION_DOT":-1.211e-5,"MEAN_MOTION_DDOT":0},{"OBJECT_NAME":"STARLINK-11234 [DTC]","OBJECT_ID":"2024-141C","EPOCH":"2025-09-13T16:12:33.688224","MEAN_MOTION":15.69706025,"ECCENTRICITY":0.00016828,"INCLINATION":53.1603,"RA_OF_ASC_NODE":238.67,"ARG_OF_PERICENTER":104.188,"MEAN_ANOMALY":255.9325,"EPHEMERIS_TYPE":0,"CLASSIFICATION_TYPE":"U","NORAD_CAT_ID":60400,"ELEMENT_SET_NO":999,"REV_AT_EPOCH":6389,"BSTAR":4.783e-7,"MEAN_MOTION_DOT":-5.32e-6,"MEAN_MOTION_DDOT":0},{"OBJECT_NAME":"STARLINK-11232 [DTC]","OBJECT_ID":"2024-141D","EPOCH":"2025-09-13T05:23:42.669024","MEAN_MOTION":15.69707475,"ECCENTRICITY":5.517e-5,"INCLINATION":53.158,"RA_OF_ASC_NODE":240.8357,"ARG_OF_PERICENTER":29.6536,"MEAN_ANOMALY":330.4513,"EPHEMERIS_TYPE":0,"CLASSIFICATION_TYPE":"U","NORAD_CAT_ID":60401,"ELEMENT_SET_NO":999,"REV_AT_EPOCH":6387,"BSTAR":5.293531e-6,"MEAN_MOTION_DOT":5.4e-7,"MEAN_MOTION_DDOT":0},{"OBJECT_NAME":"STARLINK-11139 [DTC]","OBJECT_ID":"2024-141E","EPOCH":"2025-09-14T05:43:34.608864","MEAN_MOTION":15.69714725,"ECCENTRICITY":0.00011105,"INCLINATION":53.1598,"RA_OF_ASC_NODE":235.7802,"ARG_OF_PERICENTER":84.2584,"MEAN_ANOMALY":275.856,"EPHEMERIS_TYPE":0,"CLASSIFICATION_TYPE":"U","NORAD_CAT_ID":60402,"ELEMENT_SET_NO":999,"REV_AT_EPOCH":6403,"BSTAR":4.156157e-6,"MEAN_MOTION_DOT":-8.5e-7,"MEAN_MOTION_DDOT":0},{"OBJECT_NAME":"STARLINK-11158 [DTC]","OBJECT_ID":"2024-141F","EPOCH":"2025-09-14T05:36:39.939840","MEAN_MOTION":15.69710616,"ECCENTRICITY":0.00013995,"INCLINATION":53.1598,"RA_OF_ASC_NODE":236.4823,"ARG_OF_PERICENTER":95.2212,"MEAN_ANOMALY":264.8965,"EPHEMERIS_TYPE":0,"CLASSIFICATION_TYPE":"U","NORAD_CAT_ID":60403,"ELEMENT_SET_NO":999,"REV_AT_EPOCH":6397,"BSTAR":1.199397e-6,"MEAN_MOTION_DOT":-4.44e-6,"MEAN_MOTION_DDOT":0},{"OBJECT_NAME":"STARLINK-11199 [DTC]","OBJECT_ID":"2024-141G","EPOCH":"2025-09-14T05:29:36.262752","MEAN_MOTION":15.69713551,"ECCENTRICITY":0.00012692,"INCLINATION":53.157,"RA_OF_ASC_NODE":236.4479,"ARG_OF_PERICENTER":86.0782,"MEAN_ANOMALY":274.0381,"EPHEMERIS_TYPE":0,"CLASSIFICATION_TYPE":"U","NORAD_CAT_ID":60404,"ELEMENT_SET_NO":999,"REV_AT_EPOCH":6402,"BSTAR":-1.142375e-6,"MEAN_MOTION_DOT":-7.27e-6,"MEAN_MOTION_DDOT":0},{"OBJECT_NAME":"STARLINK-11081 [DTC]","OBJECT_ID":"2024-141H","EPOCH":"2025-09-12T16:42:08.256096","MEAN_MOTION":15.697039,"ECCENTRICITY":0.00013668,"INCLINATION":53.1623,"RA_OF_ASC_NODE":243.9499,"ARG_OF_PERICENTER":77.9691,"MEAN_ANOMALY":282.148,"EPHEMERIS_TYPE":0,"CLASSIFICATION_TYPE":"U","NORAD_CAT_ID":60405,"ELEMENT_SET_NO":999,"REV_AT_EPOCH":6373,"BSTAR":-4.839681e-6,"MEAN_MOTION_DOT":-1.175e-5,"MEAN_MOTION_DDOT":0},{"OBJECT_NAME":"STARLINK-11150 [DTC]","OBJECT_ID":"2024-141J","EPOCH":"2025-09-13T09:23:34.619424","MEAN_MOTION":15.69710323,"ECCENTRICITY":3.361e-5,"INCLINATION":53.1611,"RA_OF_ASC_NODE":240.4636,"ARG_OF_PERICENTER":79.7258,"MEAN_ANOMALY":280.3798,"EPHEMERIS_TYPE":0,"CLASSIFICATION_TYPE":"U","NORAD_CAT_ID":60406,"ELEMENT_SET_NO":999,"REV_AT_EPOCH":6389,"BSTAR":1.724653e-5,"MEAN_MOTION_DOT":1.502e-5,"MEAN_MOTION_DDOT":0},{"OBJECT_NAME":"STARLINK-11136 [DTC]","OBJECT_ID":"2024-141K","EPOCH":"2025-09-14T05:08:24.637920","MEAN_MOTION":15.69709413,"ECCENTRICITY":8.686e-5,"INCLINATION":53.1597,"RA_OF_ASC_NODE":236.3514,"ARG_OF_PERICENTER":319.3851,"MEAN_ANOMALY":40.7102,"EPHEMERIS_TYPE":0,"CLASSIFICATION_TYPE":"U","NORAD_CAT_ID":60407,"ELEMENT_SET_NO":999,"REV_AT_EPOCH":6397,"BSTAR":4.44837e-7,"MEAN_MOTION_DOT":-5.34e-6,"MEAN_MOTION_DDOT":0},{"OBJECT_NAME":"STARLINK-11196 [DTC]","OBJECT_ID":"2024-141L","EPOCH":"2025-09-13T09:09:26.466912","MEAN_MOTION":15.69743859,"ECCENTRICITY":6.072e-5,"INCLINATION":53.1567,"RA_OF_ASC_NODE":240.3981,"ARG_OF_PERICENTER":60.7414,"MEAN_ANOMALY":299.3665,"EPHEMERIS_TYPE":0,"CLASSIFICATION_TYPE":"U","NORAD_CAT_ID":60408,"ELEMENT_SET_NO":999,"REV_AT_EPOCH":6389,"BSTAR":-4.5562136e-5,"MEAN_MOTION_DOT":-6.111e-5,"MEAN_MOTION_DDOT":0},{"OBJECT_NAME":"STARLINK-11174 [DTC]","OBJECT_ID":"2024-141M","EPOCH":"2025-09-13T05:51:57.060288","MEAN_MOTION":15.69716506,"ECCENTRICITY":0.00011257,"INCLINATION":53.1559,"RA_OF_ASC_NODE":240.9589,"ARG_OF_PERICENTER":81.2848,"MEAN_ANOMALY":278.8297,"EPHEMERIS_TYPE":0,"CLASSIFICATION_TYPE":"U","NORAD_CAT_ID":60409,"ELEMENT_SET_NO":999,"REV_AT_EPOCH":6382,"BSTAR":1.9067322e-5,"MEAN_MOTION_DOT":1.722e-5,"MEAN_MOTION_DDOT":0},{"OBJECT_NAME":"STARLINK-11191 [DTC]","OBJECT_ID":"2024-141N","EPOCH":"2025-09-12T23:38:10.173408","MEAN_MOTION":15.69706092,"ECCENTRICITY":9.631e-5,"INCLINATION":53.1588,"RA_OF_ASC_NODE":242.1807,"ARG_OF_PERICENTER":68.6237,"MEAN_ANOMALY":291.4883,"EPHEMERIS_TYPE":0,"CLASSIFICATION_TYPE":"U","NORAD_CAT_ID":60410,"ELEMENT_SET_NO":999,"REV_AT_EPOCH":6383,"BSTAR":1.198355e-6,"MEAN_MOTION_DOT":-4.43e-6,"MEAN_MOTION_DDOT":0},{"OBJECT_NAME":"STARLINK-32244","OBJECT_ID":"2024-141P","EPOCH":"2025-09-13T12:42:39.359808","MEAN_MOTION":15.30193989,"ECCENTRICITY":0.00012748,"INCLINATION":53.1627,"RA_OF_ASC_NODE":345.6917,"ARG_OF_PERICENTER":75.5773,"MEAN_ANOMALY":284.537,"EPHEMERIS_TYPE":0,"CLASSIFICATION_TYPE":"U","NORAD_CAT_ID":60411,"ELEMENT_SET_NO":999,"REV_AT_EPOCH":6245,"BSTAR":2.505539e-5,"MEAN_MOTION_DOT":3.83e-6,"MEAN_MOTION_DDOT":0}]
